{"fetched_at":"2026-03-29T16:36:15Z","count":15609,"tles":[{"name":"STARLINK-11425 [DTC]","line1":"1 61943U 24209E   26087.91535522  .00239431  00000+0  19205-2 0  9995","line2":"2 61943  53.1578 276.7689 0001128  99.3288 260.7858 15.69761947 79692","category":"Starlink"}]}